IRIDIUM 126             
1 42809U 17039G   25224.70203996  .00000263  00000+0  86941-4 0  9996
2 42809  86.3985 122.6267 0001965  81.2098 278.9321 14.34219351425735
IRIDIUM 124             
1 42810U 17039H   25224.59949085  .00000122  00000+0  30377-4 0  9997
2 42810  86.4443  59.3661 0002270  93.6718 266.4742 14.43278527430608
IRIDIUM 128             
1 42811U 17039J   25224.55322627  .00000016  00000+0 -14546-5 0  9995
2 42811  86.4030 154.1718 0002231  92.8653 267.2798 14.34217754425748
IRIDIUM 121             
1 42812U 17039K   25224.72104799  .00000181  00000+0  57545-4 0  9990
2 42812  86.3988 122.6444 0002310  86.5267 273.6193 14.34217244425615
IRIDIUM 133             
1 42955U 17061A   25224.72447571  .00000071  00000+0  18250-4 0  9999
2 42955  86.4031 154.2103 0002200  85.3352 274.8095 14.34218118410569
IRIDIUM 100             
1 42956U 17061B   25224.71813283 -.00000012  00000+0 -11472-4 0  9992
2 42956  86.4031 154.1389 0001989  88.2803 271.8620 14.34217405410560
IRIDIUM 122             
1 42957U 17061C   25224.54688171  .00000092  00000+0  25818-4 0  9995
2 42957  86.4029 154.2097 0002131  84.7118 275.4321 14.34218511410540
IRIDIUM 129             
1 42958U 17061D   25224.50248507  .00000013  00000+0 -22595-5 0  9991
2 42958  86.4032 154.2917 0002252  73.2262 286.9180 14.34217766410555
